OBJECT_NAME,OBJECT_ID,EPOCH,MEAN_MOTION,ECCENTRICITY,INCLINATION,RA_OF_ASC_NODE,ARG_OF_PERICENTER,MEAN_ANOMALY,EPHEMERIS_TYPE,CLASSIFICATION_TYPE,NORAD_CAT_ID,ELEMENT_SET_NO,REV_AT_EPOCH,BSTAR,MEAN_MOTION_DOT,MEAN_MOTION_DDOT
H-2A R/B,2006-002B,2026-06-14T10:01:48.547200,15.18031032,.00495321,98.2554,320.9963,271.9859,87.5700,0,U,28932,999,10910,.29692921E-3,.6154E-4,0
RESURS-DK 1,2006-021A,2026-06-14T12:33:44.495424,15.13208440,.00068291,69.9339,346.4480,293.8044,66.2406,0,U,29228,999,10217,.14202581E-3,.2421E-4,0
CZ-4B R/B,2006-046C,2026-06-14T13:11:44.339136,15.17766648,.00310675,97.5454,210.1648,292.3502,67.4440,0,U,29507,999,7473,.18916601E-3,.3796E-4,0
CZ-2C R/B,2007-010B,2026-06-14T14:15:41.502240,14.20275683,.00591771,98.4096,274.0720,13.6560,346.6202,0,U,31114,999,99347,.4736203E-4,.62E-6,0
COSMO-SKYMED 1,2007-023A,2026-06-14T15:53:18.897792,14.97088321,.00011111,97.8840,357.4968,97.9359,262.1988,0,U,31598,999,2941,.213555E-3,.2403E-4,0
COSMOS 2428,2007-029A,2026-06-14T14:16:50.859840,14.12928550,.00071484,70.9370,359.9205,139.8990,220.2660,0,U,31792,999,97778,-.44011871E-4,-.13E-5,0
SL-16 R/B,2007-029B,2026-06-14T13:32:56.039136,14.14854001,.00022768,70.9767,328.7416,261.3960,161.0882,0,U,31793,999,97907,.12941322E-3,.202E-5,0
KORONAS-FOTON,2009-003A,2026-06-14T11:44:07.595520,15.45677403,.0011395,82.4280,175.0740,156.3350,203.8425,0,U,33504,999,96068,.20687443E-3,.10041E-3,0
CZ-2C R/B,2011-030B,2026-06-14T11:37:25.304160,14.81465382,.0053257,97.8654,120.9192,36.6388,77.5190,0,U,37731,999,80442,.15135501E-3,.116E-4,0
H-2A R/B,2012-025E,2026-06-14T11:32:38.640192,14.95705694,.00438099,98.4824,140.4035,358.2410,1.8647,0,U,38341,999,76268,.29708248E-3,.3301E-4,0
SHIJIAN-16 (SJ-16),2013-057A,2026-06-14T15:00:28.566432,14.92601578,.00168253,74.9729,1.5363,236.8648,123.0926,0,U,39358,999,68596,.85752871E-4,.855E-5,0
SL-4 R/B,2014-021B,2026-06-14T09:45:30.145824,15.41905430,.00913554,51.6048,224.3944,95.8219,265.3189,0,U,39679,999,67118,.20016666E-3,.9592E-4,0
ALOS-2,2014-029A,2026-06-14T13:39:31.479840,14.79482290,.00016301,97.9220,262.7699,90.8577,269.2821,0,U,39766,999,65119,.2825802E-3,.206E-4,0
YAOGAN-29,2015-069A,2026-06-14T14:44:11.658912,14.83082261,.000273,98.0029,194.2426,57.5025,302.6452,0,U,41038,999,57024,.19231556E-4,.102E-5,0
ASTRO-H (HITOMI),2016-012A,2026-06-14T03:02:27.619584,15.10498939,.0009751,30.9991,93.9524,223.3647,136.6224,0,U,41337,999,56682,.14075146E-3,.2474E-4,0
HXMT (HUIYAN),2017-034A,2026-06-14T13:39:19.761408,15.18464729,.00303307,43.0126,197.6204,130.0289,230.3228,0,U,42758,999,49726,.15926382E-3,.3135E-4,0
SAOCOM 1A,2018-076A,2026-06-14T13:41:41.815104,14.82147688,.00016019,97.8879,352.3576,79.1893,280.9500,0,U,43641,999,41571,.56904214E-4,.401E-5,0
H-2A R/B,2018-084L,2026-06-14T14:27:42.378912,15.45068225,.00237351,98.8586,43.9283,49.2225,311.1073,0,U,43682,999,42072,.39496275E-3,.18767E-3,0
SAOCOM 1B,2020-059A,2026-06-14T03:06:09.457632,14.82167626,.00014547,97.8882,351.0173,80.9112,279.2265,0,U,46265,999,31303,.40499752E-4,.27E-5,0
CSS (TIANHE),2021-035A,2026-06-14T14:37:38.919072,15.60706958,.00076677,41.4694,337.6883,56.3828,303.7742,0,U,48274,999,29276,.24676405E-3,.20829E-3,0
COSMOS 2550,2021-056A,2026-06-14T14:40:25.059360,15.33827968,.0008408,67.1429,107.6973,268.5121,91.5070,0,U,48865,999,27832,.86685313E-4,.2661E-4,0
CZ-2C R/B,2022-058K,2026-06-14T11:46:56.495424,15.61678170,.00326276,50.1837,177.5461,256.8590,102.8742,0,U,52794,999,22522,.38946967E-3,.3481E-3,0
CZ-2C R/B,2022-132E,2026-06-14T12:59:45.757248,15.71227680,.00164006,97.2891,172.4483,92.3352,267.9789,0,U,54039,999,20553,.41201449E-3,.52534E-3,0
GSLV R/B,2022-138AN,2026-06-14T10:39:55.646784,14.97244885,.00224507,87.3799,133.9050,152.9188,207.3220,0,U,54149,999,19840,.22506542E-3,.2646E-4,0
XRISM,2023-137A,2026-06-14T06:53:04.538976,15.12442568,.00079745,31.0031,18.3881,295.0173,64.9638,0,U,57800,999,15242,.25810062E-3,.4699E-4,0
ACS3,2024-077B,2026-06-14T11:28:03.281664,13.93844868,.00684333,97.1679,84.8690,65.8786,294.9518,0,U,59588,999,10766,.64937386E-2,.871E-4,0
CZ-8A R/B,2025-231K,2026-06-13T21:47:06.252000,14.30154115,.0116473,50.0054,53.2684,212.4566,146.9149,0,U,66004,999,3447,.38923E-4,-.54E-6,0
SZ-21 MODULE,2025-246C,2026-06-13T17:32:52.137600,15.76117488,.00067511,41.4731,328.8460,328.3391,31.7047,0,U,66515,999,3319,.28446481E-3,.45764E-3,0
